{"fetched_at":"2026-03-29T16:36:15Z","count":15609,"tles":[{"name":"STARLINK-11581 [DTC]","line1":"1 63144U 25043N   26087.84028675  .00297133  00000+0  22208-2 0  9995","line2":"2 63144  43.0007 135.3134 0002055 307.6214  52.4467 15.71016795 62489","category":"Starlink"}]}